{
    "links": {
        "self": "http://www.neowsapp.com/rest/v1/neo/3781720?api_key=iIulBulltgU6a56xZRHN4H3l9WmuAYTsLGpBGhQ2"
    },
    "id": "3781720",
    "neo_reference_id": "3781720",
    "name": "(2017 SY11)",
    "designation": "2017 SY11",
    "nasa_jpl_url": "http://ssd.jpl.nasa.gov/sbdb.cgi?sstr=3781720",
    "absolute_magnitude_h": 22.4,
    "estimated_diameter": {
        "kilometers": {
            "estimated_diameter_min": 0.0880146521,
            "estimated_diameter_max": 0.1968067451
        },
        "meters": {
            "estimated_diameter_min": 88.0146520901,
            "estimated_diameter_max": 196.8067450894
        },
        "miles": {
            "estimated_diameter_min": 0.0546897524,
            "estimated_diameter_max": 0.122290004
        },
        "feet": {
            "estimated_diameter_min": 288.7619911632,
            "estimated_diameter_max": 645.6914415591
        }
    },
    "is_potentially_hazardous_asteroid": false,
    "close_approach_data": [
        {
            "close_approach_date": "2017-10-12",
            "close_approach_date_full": "2017-Oct-12 14:46",
            "epoch_date_close_approach": 1507819560000,
            "relative_velocity": {
                "kilometers_per_second": "1.4685507013",
                "kilometers_per_hour": "5286.7825248441",
                "miles_per_hour": "3285.0010638399"
            },
            "miss_distance": {
                "astronomical": "0.2751115483",
                "lunar": "107.0183922887",
                "kilometers": "41156101.638082121",
                "miles": "25573215.7121344298"
            },
            "orbiting_body": "Earth"
        }
    ],
    "orbital_data": {
        "orbit_id": "6",
        "orbit_determination_date": "2017-10-28 06:43:00",
        "first_observation_date": "2017-09-21",
        "last_observation_date": "2017-10-27",
        "data_arc_in_days": 36,
        "observations_used": 39,
        "orbit_uncertainty": "6",
        "minimum_orbit_intersection": ".277561",
        "jupiter_tisserand_invariant": "3.714",
        "epoch_osculation": "2459000.5",
        "eccentricity": ".3791930382511",
        "semi_major_axis": "2.031193566882161",
        "inclination": "4.510776441943376",
        "ascending_node_longitude": "275.9429787585731",
        "orbital_period": "1057.366131615654",
        "perihelion_distance": "1.260979106980026",
        "perihelion_argument": "105.4231654378197",
        "aphelion_distance": "2.801408026784297",
        "perihelion_time": "2459098.868274359679",
        "mean_anomaly": "326.5086882295217",
        "mean_motion": ".3404686316649093",
        "equinox": "J2000",
        "orbit_class": {
            "orbit_class_type": "AMO",
            "orbit_class_description": "Near-Earth asteroid orbits similar to that of 1221 Amor",
            "orbit_class_range": "1.017 AU < q (perihelion) < 1.3 AU"
        }
    },
    "is_sentry_object": false
}